CZ-4B R/B               
1 27432U 02024C   24075.14227090  .00000046  00000+0  47738-4 0  9991
2 27432  98.9887 116.9558 0049271 277.3358 150.7655 14.14289951126891
MIDORI II (ADEOS-II)    
1 27597U 02056A   24074.81664239  .00000456  00000+0  20082-3 0  9998
2 27597  98.6823  21.9464 0000980  34.8644 325.2602 14.28233812106786
H-2A R/B                
1 27601U 02056E   24074.94710418  .00000378  00000+0  14948-3 0  9996
2 27601  98.2224  56.7402 0071735 161.5783 257.8215 14.32682330110298
CZ-4B R/B               
1 28059U 03049C   24074.88892645  .00000651  00000+0  16530-3 0  9996
2 28059  98.6000  34.6722 0048038 284.3956  75.1910 14.53609079 81223
CZ-2C R/B               
1 28222U 04012C   24075.51327176  .00011620  00000+0  48332-3 0  9995
2 28222  97.8103  84.5327 0036659  19.9058 340.3598 15.23323838 92849
SL-16 R/B               
1 28353U 04021B   24074.89118866 -.00000001  00000+0  24313-4 0  9990
2 28353  71.0025 313.3116 0003336  37.3617 322.7736 14.14396202 20349
CZ-4B R/B               
1 28415U 04035C   24075.08055727  .00005440  00000+0  29490-3 0  9993
2 28415  97.4366 110.8769 0043617 351.9603   8.0924 15.14171678 69714
CZ-2C R/B               
1 28480U 04046B   24074.87717406  .00000225  00000+0  99067-4 0  9996
2 28480  98.1524  25.4776 0141660 137.8684 223.3491 14.26264819  5157
ARIANE 5 R/B            
1 28499U 04049H   24074.89931495  .00001904  00000+0  23036-3 0  9994
2 28499  98.1672 210.7894 0088883 177.1847 182.9884 14.82180569 38306
CZ-2D R/B               
1 28738U 05024B   24075.49106063  .00010120  00000+0  42648-3 0  9996
2 28738  97.3650  75.5897 0011399 110.3436 249.9027 15.23464285 28397
SUZAKU (ASTRO-EII)      
1 28773U 05025A   24075.38600360  .00028094  00000+0  68701-3 0  9990
2 28773  31.3894  53.1752 0001028 355.9332   4.1314 15.39600478 32518
ALOS (DAICHI)           
1 28931U 06002A   24075.48324091  .00001850  00000+0  35194-3 0  9998
2 28931  98.0268  30.6389 0002497  86.1727 273.9762 14.65253248967626
H-2A R/B                
1 28932U 06002B   24075.21356326  .00006629  00000+0  51138-3 0  9991
2 28932  98.2126 161.7276 0076012 153.7214 206.7896 14.99658204985348
RESURS-DK 1             
1 29228U 06021A   24074.89603345  .00002425  00000+0  17025-3 0  9997
2 29228  69.9346 303.4571 0004746 202.8722 157.2230 15.06568246978118
GENESIS 1               
1 29252U 06029A   24075.19642088  .00014913  00000+0  44879-3 0  9995
2 29252  64.5160 122.4044 0013438 336.0491  24.0013 15.34492977976212
CZ-4B R/B               
1 29507U 06046C   24075.33928173  .00003225  00000+0  21888-3 0  9994
2 29507  97.6561 111.9639 0039984 235.5418 124.2029 15.06492305950638
CZ-2C R/B               
1 31114U 07010B   24074.89067841  .00000195  00000+0  10956-3 0  9996
2 31114  98.3150 216.5469 0058487 242.4205 117.1025 14.19721675876856
COSMO-SKYMED 1          
1 31598U 07023A   24075.49884726  .00001534  00000+0  19933-3 0  9994
2 31598  97.8852 260.0172 0001470  88.3341 271.8041 14.82142194907313
GENESIS 2               
1 31789U 07028A   24075.46654279  .00016709  00000+0  51716-3 0  9991
2 31789  64.4910 166.6817 0032546 228.7001 131.1327 15.33105199923097
COSMOS 2428             
1 31792U 07029A   24074.88474616  .00000062  00000+0  59186-4 0  9991
2 31792  70.9461 284.6163 0010928 195.0118 165.0680 14.12706557861724
SL-16 R/B               
1 31793U 07029B   24075.53858501  .00000331  00000+0  19702-3 0  9992
2 31793  70.9737 254.3562 0002022 277.1525 143.5362 14.14603335863045
KORONAS-FOTON           
1 33504U 09003A   24074.86530886  .00006745  00000+0  27308-3 0  9992
2 33504  82.4357 298.1213 0014959 209.5617 150.4776 15.24405809834643
CZ-2C R/B               
1 37731U 11030B   24075.53319025  .00001534  00000+0  21824-3 0  9994
2 37731  97.7534  42.9161 0056492 182.3928 295.4905 14.77181837683020
H-2A R/B                
1 38341U 12025E   24075.21461624  .00003013  00000+0  32887-3 0  9990
2 38341  98.4292 340.8808 0052047 151.2603 209.1497 14.87782265640295
CUSAT 2 & FALCON 9 R/B  
1 39271U 13055G   24075.45045958  .00046139 -76226-7  63628-3 0  9996
2 39271  80.9395 191.6660 0349929 258.7268  97.4450 15.09081897551177
SHIJIAN-16 (SJ-16)      
1 39358U 13057A   24075.49071915  .00001057  00000+0  11704-3 0  9996
2 39358  74.9712 112.2840 0016863  61.0287 299.2587 14.88301084563672
CZ-2C R/B               
1 39364U 13059B   24074.13566750  .00073460  00000+0  68877-3 0  9991
2 39364  97.0578 122.5144 0020564 170.5378 189.6275 15.66697726578227
SL-4 R/B                
1 39679U 14021B   24074.80281095  .00007367  00000+0  29188-3 0  9995
2 39679  51.6099 215.2613 0141568  24.3155 336.4414 15.17711395545426
ALOS-2                  
1 39766U 14029A   24075.57396780  .00002235  00000+0  30608-3 0  9991
2 39766  97.9191 173.5649 0001603 102.5590 257.5801 14.79471393529839
SL-27 R/B               
1 40354U 14084B   24074.94476061  .00038995  00000+0  37007-3 0  9990
2 40354  74.7272  54.1422 0024752 267.2192  92.6200 15.66301997519342
YAOGAN-29               
1 41038U 15069A   24075.50951470  .00000680  00000+0  93572-4 0  9999
2 41038  98.0609  89.3581 0002341 147.1708 212.9650 14.81558572448593
ASTRO-H (HITOMI)        
1 41337U 16012A   24074.91746353  .00003030  00000+0  21358-3 0  9990
2 41337  31.0034 330.3028 0011549 278.9759  80.9570 15.02959874442826
HXMT (HUIYAN)           
1 42758U 17034A   24075.45331927  .00007210  00000+0  37854-3 0  9992
2 42758  43.0148  73.6305 0001910 293.6578  66.4069 15.16150155372635
CZ-2C R/B               
1 43521U 18054D   24074.86255526  .00015674  00000+0  58065-3 0  9998
2 43521  35.1504 352.0696 0062275 355.9523   4.0686 15.24961922316443
SAOCOM 1A               
1 43641U 18076A   24075.50735404  .00000720  00000+0  97014-4 0  9999
2 43641  97.8892 263.0775 0001337  89.8138 270.3228 14.82152689294098
H-2A R/B                
1 43682U 18084L   24074.76765997  .00006473  00000+0  36595-3 0  9997
2 43682  98.8562 146.9999 0045919 325.0456  34.7758 15.12632167295210
SAOCOM 1B               
1 46265U 20059A   24075.47107137  .00000718  00000+0  96772-4 0  9997
2 46265  97.8900 262.1325 0001483  87.3722 272.7660 14.82149548191483
CSS (TIANHE)            
1 48274U 21035A   24075.08615142  .00038266  00000+0  40850-3 0  9995
2 48274  41.4672 298.2372 0009076 178.1569 181.9306 15.63128075164369
COSMOS 2550             
1 48865U 21056A   24075.51767565  .00005267  00000+0  16580-3 0  9997
2 48865  67.1413  71.6632 0008400 269.0593  90.9599 15.33829052152418
2022-019U               
1 51842U 22019U   24075.53113295  .00063259  00000+0  88367-3 0  9990
2 51842  97.5106 176.1991 0033513  80.6556 279.8485 15.55980884114461
CZ-2C R/B               
1 52794U 22058K   24075.12378670  .00010273  00000+0  43549-3 0  9996
2 52794  50.1682 341.7506 0085626 110.5015 250.5157 15.20383726 98792
CZ-2C R/B               
1 53131U 22082D   24075.53895644  .00145286  00000+0  67899-3 0  9996
2 53131  97.3161 105.2048 0012693 301.6549  58.3481 15.82762179 94269
XRISM                   
1 57800U 23137A   24074.90414918  .00004561  00000+0  35229-3 0  9998
2 57800  31.0022 252.1843 0010191 355.1598   4.8938 14.99908687 28433
